<?xml version="1.0" encoding="UTF-8"?>
<kml xmlns="http://www.opengis.net/kml/2.2">
  <Document>
    <name>Sample</name>
    <Placemark>
      <name>Denver</name>
      <Point><coordinates>-104.9903,39.7392,0</coordinates></Point>
    </Placemark>
    <Placemark>
      <name>Corridor</name>
      <LineString>
        <coordinates>-105.05,39.68,0 -104.99,39.74,0 -104.85,39.78,0</coordinates>
      </LineString>
    </Placemark>
    <Placemark>
      <name>AO</name>
      <Polygon>
        <outerBoundaryIs>
          <LinearRing>
            <coordinates>-105.08,39.66,0 -104.82,39.66,0 -104.82,39.82,0 -105.08,39.82,0 -105.08,39.66,0</coordinates>
          </LinearRing>
        </outerBoundaryIs>
      </Polygon>
    </Placemark>
  </Document>
</kml>
