{
  "type": "FeatureCollection",
  "features": [
    {
      "type": "Feature",
      "properties": { "name": "Denver", "color": "#38bdf8" },
      "geometry": { "type": "Point", "coordinates": [-104.9903, 39.7392] }
    },
    {
      "type": "Feature",
      "properties": { "name": "Corridor", "color": "#fbbf24", "weight": 3 },
      "geometry": {
        "type": "LineString",
        "coordinates": [
          [-105.05, 39.68],
          [-104.99, 39.74],
          [-104.85, 39.78]
        ]
      }
    },
    {
      "type": "Feature",
      "properties": {
        "name": "AO",
        "color": "#34d399",
        "fill-opacity": 0.22
      },
      "geometry": {
        "type": "Polygon",
        "coordinates": [
          [
            [-105.08, 39.66],
            [-104.82, 39.66],
            [-104.82, 39.82],
            [-105.08, 39.82],
            [-105.08, 39.66]
          ]
        ]
      }
    },
    {
      "type": "Feature",
      "properties": {
        "name": "Ring",
        "kind": "circle",
        "radiusM": 6000,
        "color": "#f472b6"
      },
      "geometry": { "type": "Point", "coordinates": [-104.9903, 39.7392] }
    }
  ]
}
